QIANFAN-97              
1 66039U 25233G   26194.52005750  .00000073  00000+0  94986-4 0  9994
2 66039  88.9986  40.5253 0002008  93.0159 267.1222 13.51015647 36745
QIANFAN-98              
1 66040U 25233H   26194.60232632  .00000074  00000+0  96085-4 0  9999
2 66040  88.9976  40.2449 0002438  83.0428 277.1000 13.51015488 36899
QIANFAN-99              
1 66041U 25233J   26194.60642750  .00000076  00000+0  99335-4 0  9999
2 66041  88.9987  40.5207 0002346  86.9974 273.1446 13.51015535 36751
QIANFAN-100             
1 66042U 25233K   26194.59640747 -.01650728  00000+0 -29313+1 0  9995
2 66042  88.9887  40.4443 0003537 159.9085 200.2203 13.46197086 36803
QIANFAN-101             
1 66043U 25233L   26194.52317273  .00000196  00000+0  74755-4 0  9993
2 66043  88.9984  37.5432 0017304  62.0267 298.2676 14.26821982 38384
QIANFAN-102             
1 66044U 25233M   26194.61879795  .00000059  00000+0  72551-4 0  9996
2 66044  88.9984  40.4284 0002120  88.6726 271.4668 13.51015428 36803
QIANFAN-103             
1 66045U 25233N   26194.62290742  .00000060  00000+0  74223-4 0  9997
2 66045  88.9987  40.5238 0001947  92.4352 267.7022 13.51016343 36754
QIANFAN-104             
1 66046U 25233P   26194.62717402  .00000060  00000+0  74435-4 0  9990
2 66046  88.9992  40.4269 0002108  87.1627 272.9766 13.51021978 36809
QIANFAN-105             
1 66047U 25233Q   26194.63542316  .00000062  00000+0  77238-4 0  9998
2 66047  89.0009  40.2728 0002123  92.5792 267.5602 13.51020914 36919
QIANFAN-106             
1 66048U 25233R   26194.63117860  .00000067  00000+0  85621-4 0  9991
2 66048  88.9975  40.4777 0002376  84.5338 275.6084 13.51015440 36757
QIANFAN-107             
1 66049U 25233S   26194.63938985  .00000075  00000+0  97779-4 0  9997
2 66049  88.9990  40.5135 0001981  91.6678 268.4701 13.51014935 36766
QIANFAN-108             
1 66050U 25233T   26194.64348963  .00000074  00000+0  95801-4 0  9994
2 66050  88.9983  40.4989 0002316  84.1745 275.9670 13.51016121 36768
QIANFAN-109             
1 68636U 26075A   26194.87982337  .00000052  00000+0  61530-4 0  9993
2 68636  88.9914 318.2863 0002230 116.3823 243.7557 13.51014164 13397
QIANFAN-110             
1 68637U 26075B   26194.81395751  .00000071  00000+0  91547-4 0  9998
2 68637  88.9914 318.3145 0002024 103.3662 256.7715 13.51015440 13387
QIANFAN-111             
1 68638U 26075C   26194.87566837  .00000049  00000+0  57480-4 0  9993
2 68638  88.9913 318.2677 0002005 101.8777 258.2599 13.51022342 13415
QIANFAN-112             
1 68639U 26075D   26194.83849079  .00000064  00000+0  80746-4 0  9990
2 68639  88.9912 318.2802 0002009 117.8305 242.3050 13.51012845 13405
