{"fetched_at":"2026-07-14T06:34:25.665Z","source":"https://celestrak.org/NORAD/elements/gp.php?GROUP=qianfan&FORMAT=JSON","constellation":"qianfan","records":[{"OBJECT_NAME":"QIANFAN-97","OBJECT_ID":"2025-233G","EPOCH":"2026-07-13T12:28:52.968000","CLASSIFICATION_TYPE":"U","MEAN_MOTION":13.51015647,"ECCENTRICITY":0.00020086,"INCLINATION":88.9986,"RA_OF_ASC_NODE":40.5253,"ARG_OF_PERICENTER":93.0159,"MEAN_ANOMALY":267.1222,"EPHEMERIS_TYPE":0,"NORAD_CAT_ID":66039,"ELEMENT_SET_NO":999,"REV_AT_EPOCH":3674,"BSTAR":0.000094986161,"MEAN_MOTION_DOT":7.3e-7,"MEAN_MOTION_DDOT":0},{"OBJECT_NAME":"QIANFAN-98","OBJECT_ID":"2025-233H","EPOCH":"2026-07-13T14:27:20.994048","CLASSIFICATION_TYPE":"U","MEAN_MOTION":13.51015488,"ECCENTRICITY":0.0002438,"INCLINATION":88.9976,"RA_OF_ASC_NODE":40.2449,"ARG_OF_PERICENTER":83.0428,"MEAN_ANOMALY":277.1,"EPHEMERIS_TYPE":0,"NORAD_CAT_ID":66040,"ELEMENT_SET_NO":999,"REV_AT_EPOCH":3689,"BSTAR":0.000096085,"MEAN_MOTION_DOT":7.4e-7,"MEAN_MOTION_DDOT":0},{"OBJECT_NAME":"QIANFAN-99","OBJECT_ID":"2025-233J","EPOCH":"2026-07-13T14:33:15.336000","CLASSIFICATION_TYPE":"U","MEAN_MOTION":13.51015535,"ECCENTRICITY":0.0002346,"INCLINATION":88.9987,"RA_OF_ASC_NODE":40.5207,"ARG_OF_PERICENTER":86.9974,"MEAN_ANOMALY":273.1446,"EPHEMERIS_TYPE":0,"NORAD_CAT_ID":66041,"ELEMENT_SET_NO":999,"REV_AT_EPOCH":3675,"BSTAR":0.000099335,"MEAN_MOTION_DOT":7.6e-7,"MEAN_MOTION_DDOT":0},{"OBJECT_NAME":"QIANFAN-100","OBJECT_ID":"2025-233K","EPOCH":"2026-07-13T14:18:49.605408","CLASSIFICATION_TYPE":"U","MEAN_MOTION":13.46197086,"ECCENTRICITY":0.0003537,"INCLINATION":88.9887,"RA_OF_ASC_NODE":40.4443,"ARG_OF_PERICENTER":159.9085,"MEAN_ANOMALY":200.2203,"EPHEMERIS_TYPE":0,"NORAD_CAT_ID":66042,"ELEMENT_SET_NO":999,"REV_AT_EPOCH":3680,"BSTAR":-2.9313,"MEAN_MOTION_DOT":-0.01650728,"MEAN_MOTION_DDOT":0},{"OBJECT_NAME":"QIANFAN-101","OBJECT_ID":"2025-233L","EPOCH":"2026-07-13T12:33:22.123872","CLASSIFICATION_TYPE":"U","MEAN_MOTION":14.26821982,"ECCENTRICITY":0.00173044,"INCLINATION":88.9984,"RA_OF_ASC_NODE":37.5432,"ARG_OF_PERICENTER":62.0267,"MEAN_ANOMALY":298.2676,"EPHEMERIS_TYPE":0,"NORAD_CAT_ID":66043,"ELEMENT_SET_NO":999,"REV_AT_EPOCH":3838,"BSTAR":0.000074754768,"MEAN_MOTION_DOT":0.00000196,"MEAN_MOTION_DDOT":0},{"OBJECT_NAME":"QIANFAN-102","OBJECT_ID":"2025-233M","EPOCH":"2026-07-13T14:51:04.142880","CLASSIFICATION_TYPE":"U","MEAN_MOTION":13.51015428,"ECCENTRICITY":0.000212,"INCLINATION":88.9984,"RA_OF_ASC_NODE":40.4284,"ARG_OF_PERICENTER":88.6726,"MEAN_ANOMALY":271.4668,"EPHEMERIS_TYPE":0,"NORAD_CAT_ID":66044,"ELEMENT_SET_NO":999,"REV_AT_EPOCH":3680,"BSTAR":0.000072551,"MEAN_MOTION_DOT":5.9e-7,"MEAN_MOTION_DDOT":0},{"OBJECT_NAME":"QIANFAN-103","OBJECT_ID":"2025-233N","EPOCH":"2026-07-13T14:56:59.201088","CLASSIFICATION_TYPE":"U","MEAN_MOTION":13.51016343,"ECCENTRICITY":0.0001947,"INCLINATION":88.9987,"RA_OF_ASC_NODE":40.5238,"ARG_OF_PERICENTER":92.4352,"MEAN_ANOMALY":267.7022,"EPHEMERIS_TYPE":0,"NORAD_CAT_ID":66045,"ELEMENT_SET_NO":999,"REV_AT_EPOCH":3675,"BSTAR":0.000074223,"MEAN_MOTION_DOT":6e-7,"MEAN_MOTION_DDOT":0},{"OBJECT_NAME":"QIANFAN-104","OBJECT_ID":"2025-233P","EPOCH":"2026-07-13T15:03:07.835328","CLASSIFICATION_TYPE":"U","MEAN_MOTION":13.51021978,"ECCENTRICITY":0.0002108,"INCLINATION":88.9992,"RA_OF_ASC_NODE":40.4269,"ARG_OF_PERICENTER":87.1627,"MEAN_ANOMALY":272.9766,"EPHEMERIS_TYPE":0,"NORAD_CAT_ID":66046,"ELEMENT_SET_NO":999,"REV_AT_EPOCH":3680,"BSTAR":0.000074435,"MEAN_MOTION_DOT":6e-7,"MEAN_MOTION_DDOT":0},{"OBJECT_NAME":"QIANFAN-105","OBJECT_ID":"2025-233Q","EPOCH":"2026-07-13T15:15:00.561024","CLASSIFICATION_TYPE":"U","MEAN_MOTION":13.51020914,"ECCENTRICITY":0.0002123,"INCLINATION":89.0009,"RA_OF_ASC_NODE":40.2728,"ARG_OF_PERICENTER":92.5792,"MEAN_ANOMALY":267.5602,"EPHEMERIS_TYPE":0,"NORAD_CAT_ID":66047,"ELEMENT_SET_NO":999,"REV_AT_EPOCH":3691,"BSTAR":0.000077238,"MEAN_MOTION_DOT":6.2e-7,"MEAN_MOTION_DDOT":0},{"OBJECT_NAME":"QIANFAN-106","OBJECT_ID":"2025-233R","EPOCH":"2026-07-13T15:08:53.831040","CLASSIFICATION_TYPE":"U","MEAN_MOTION":13.5101544,"ECCENTRICITY":0.0002376,"INCLINATION":88.9975,"RA_OF_ASC_NODE":40.4777,"ARG_OF_PERICENTER":84.5338,"MEAN_ANOMALY":275.6084,"EPHEMERIS_TYPE":0,"NORAD_CAT_ID":66048,"ELEMENT_SET_NO":999,"REV_AT_EPOCH":3675,"BSTAR":0.000085621,"MEAN_MOTION_DOT":6.7e-7,"MEAN_MOTION_DDOT":0},{"OBJECT_NAME":"QIANFAN-107","OBJECT_ID":"2025-233S","EPOCH":"2026-07-13T15:20:43.283040","CLASSIFICATION_TYPE":"U","MEAN_MOTION":13.51014935,"ECCENTRICITY":0.0001981,"INCLINATION":88.999,"RA_OF_ASC_NODE":40.5135,"ARG_OF_PERICENTER":91.6678,"MEAN_ANOMALY":268.4701,"EPHEMERIS_TYPE":0,"NORAD_CAT_ID":66049,"ELEMENT_SET_NO":999,"REV_AT_EPOCH":3676,"BSTAR":0.000097779,"MEAN_MOTION_DOT":7.5e-7,"MEAN_MOTION_DDOT":0},{"OBJECT_NAME":"QIANFAN-108","OBJECT_ID":"2025-233T","EPOCH":"2026-07-13T15:26:37.504032","CLASSIFICATION_TYPE":"U","MEAN_MOTION":13.51016121,"ECCENTRICITY":0.0002316,"INCLINATION":88.9983,"RA_OF_ASC_NODE":40.4989,"ARG_OF_PERICENTER":84.1745,"MEAN_ANOMALY":275.967,"EPHEMERIS_TYPE":0,"NORAD_CAT_ID":66050,"ELEMENT_SET_NO":999,"REV_AT_EPOCH":3676,"BSTAR":0.000095801,"MEAN_MOTION_DOT":7.4e-7,"MEAN_MOTION_DDOT":0},{"OBJECT_NAME":"QIANFAN-109","OBJECT_ID":"2026-075A","EPOCH":"2026-07-13T21:06:56.739168","CLASSIFICATION_TYPE":"U","MEAN_MOTION":13.51014164,"ECCENTRICITY":0.000223,"INCLINATION":88.9914,"RA_OF_ASC_NODE":318.2863,"ARG_OF_PERICENTER":116.3823,"MEAN_ANOMALY":243.7557,"EPHEMERIS_TYPE":0,"NORAD_CAT_ID":68636,"ELEMENT_SET_NO":999,"REV_AT_EPOCH":1339,"BSTAR":0.00006153,"MEAN_MOTION_DOT":5.2e-7,"MEAN_MOTION_DDOT":0},{"OBJECT_NAME":"QIANFAN-110","OBJECT_ID":"2026-075B","EPOCH":"2026-07-13T19:32:05.928864","CLASSIFICATION_TYPE":"U","MEAN_MOTION":13.5101544,"ECCENTRICITY":0.0002024,"INCLINATION":88.9914,"RA_OF_ASC_NODE":318.3145,"ARG_OF_PERICENTER":103.3662,"MEAN_ANOMALY":256.7715,"EPHEMERIS_TYPE":0,"NORAD_CAT_ID":68637,"ELEMENT_SET_NO":999,"REV_AT_EPOCH":1338,"BSTAR":0.000091547,"MEAN_MOTION_DOT":7.1e-7,"MEAN_MOTION_DDOT":0},{"OBJECT_NAME":"QIANFAN-111","OBJECT_ID":"2026-075C","EPOCH":"2026-07-13T21:00:57.747168","CLASSIFICATION_TYPE":"U","MEAN_MOTION":13.51022342,"ECCENTRICITY":0.0002005,"INCLINATION":88.9913,"RA_OF_ASC_NODE":318.2677,"ARG_OF_PERICENTER":101.8777,"MEAN_ANOMALY":258.2599,"EPHEMERIS_TYPE":0,"NORAD_CAT_ID":68638,"ELEMENT_SET_NO":999,"REV_AT_EPOCH":1341,"BSTAR":0.00005748,"MEAN_MOTION_DOT":4.9e-7,"MEAN_MOTION_DDOT":0},{"OBJECT_NAME":"QIANFAN-112","OBJECT_ID":"2026-075D","EPOCH":"2026-07-13T20:07:25.604256","CLASSIFICATION_TYPE":"U","MEAN_MOTION":13.51012845,"ECCENTRICITY":0.0002009,"INCLINATION":88.9912,"RA_OF_ASC_NODE":318.2802,"ARG_OF_PERICENTER":117.8305,"MEAN_ANOMALY":242.305,"EPHEMERIS_TYPE":0,"NORAD_CAT_ID":68639,"ELEMENT_SET_NO":999,"REV_AT_EPOCH":1340,"BSTAR":0.000080746,"MEAN_MOTION_DOT":6.4e-7,"MEAN_MOTION_DDOT":0}]}
